start=new Date('2022-03-16T00:00:00.000Z').valueOf();
sats=[{"SEMIMAJOR_AXIS":"6925.286","DECAY_DATE":null,"ARG_OF_PERICENTER":"78.8755","RA_OF_ASC_NODE":"182.8191","MEAN_ANOMALY":"281.2356","TLE_LINE1":"1 48600U 21041AZ  22074.80894056  .00010382  00000-0  71444-3 0  9998","FILE":"3360782","OBJECT_NAME":"STARLINK-2275","EPHEMERIS_TYPE":"0","ELEMENT_SET_NO":"999","TLE_LINE2":"2 48600  53.0535 182.8191 0001087  78.8755 281.2356 15.06420542 47183","PERIOD":"95.591","SITE":"AFETR","MEAN_MOTION_DOT":"0.00010382","APOAPSIS":"547.903","CENTER_NAME":"EARTH","OBJECT_ID":"2021-041AZ","INCLINATION":"53.0535","OBJECT_TYPE":"PAYLOAD","TIME_SYSTEM":"UTC","CLASSIFICATION_TYPE":"U","REV_AT_EPOCH":"4718","NORAD_CAT_ID":"48600","ECCENTRICITY":"0.00010870","RCS_SIZE":"LARGE","GP_ID":"198821970","MEAN_MOTION":"15.06420542","REF_FRAME":"TEME","BSTAR":"0.00071444000000","LAUNCH_DATE":"2021-05-15","EPOCH":"2022-03-15T19:24:52.464384","MEAN_ELEMENT_THEORY":"SGP4","PERIAPSIS":"546.398","COUNTRY_CODE":"US","MEAN_MOTION_DDOT":"0.0000000000000"},{"ARG_OF_PERICENTER":"61.6051","MEAN_ANOMALY":"298.5096","RA_OF_ASC_NODE":"168.1435","SEMIMAJOR_AXIS":"6925.370","DECAY_DATE":null,"APOAPSIS":"548.325","MEAN_MOTION_DOT":"0.00003931","OBJECT_ID":"2021-041BB","CENTER_NAME":"EARTH","TLE_LINE1":"1 48602U 21041BB  22074.73845120  .00003931  00000-0  28269-3 0  9999","PERIOD":"95.593","TLE_LINE2":"2 48602  53.0542 168.1435 0001574  61.6051 298.5096 15.06392943 47388","SITE":"AFETR","FILE":"3360772","EPHEMERIS_TYPE":"0","OBJECT_NAME":"STARLINK-2713","ELEMENT_SET_NO":"999","CLASSIFICATION_TYPE":"U","OBJECT_TYPE":"PAYLOAD","TIME_SYSTEM":"UTC","INCLINATION":"53.0542","EPOCH":"2022-03-15T17:43:22.183680","MEAN_ELEMENT_THEORY":"SGP4","PERIAPSIS":"546.145","MEAN_MOTION_DDOT":"0.0000000000000","COUNTRY_CODE":"US","NORAD_CAT_ID":"48602","REV_AT_EPOCH":"4738","BSTAR":"0.00028269000000","LAUNCH_DATE":"2021-05-15","RCS_SIZE":"LARGE","ECCENTRICITY":"0.00015740","GP_ID":"198821492","REF_FRAME":"TEME","MEAN_MOTION":"15.06392943"},{"TLE_LINE1":"1 48603U 21041BC  22074.51866577  .00002372  00000-0  17815-3 0  9998","ELEMENT_SET_NO":"999","OBJECT_NAME":"STARLINK-2714","FILE":"3360930","EPHEMERIS_TYPE":"0","SITE":"AFETR","PERIOD":"95.593","TLE_LINE2":"2 48603  53.0537 164.1306 0001364  66.9067 293.2065 15.06385444 47429","MEAN_MOTION_DOT":"0.00002372","APOAPSIS":"548.203","CENTER_NAME":"EARTH","OBJECT_ID":"2021-041BC","SEMIMAJOR_AXIS":"6925.393","DECAY_DATE":null,"ARG_OF_PERICENTER":"66.9067","RA_OF_ASC_NODE":"164.1306","MEAN_ANOMALY":"293.2065","REV_AT_EPOCH":"4742","NORAD_CAT_ID":"48603","GP_ID":"198848668","MEAN_MOTION":"15.06385444","REF_FRAME":"TEME","ECCENTRICITY":"0.00013640","RCS_SIZE":"LARGE","LAUNCH_DATE":"2021-05-15","BSTAR":"0.00017815000000","PERIAPSIS":"546.314","MEAN_ELEMENT_THEORY":"SGP4","EPOCH":"2022-03-15T12:26:52.722528","COUNTRY_CODE":"US","MEAN_MOTION_DDOT":"0.0000000000000","INCLINATION":"53.0537","TIME_SYSTEM":"UTC","OBJECT_TYPE":"PAYLOAD","CLASSIFICATION_TYPE":"U"},{"FILE":"3360930","EPHEMERIS_TYPE":"0","OBJECT_NAME":"STARLINK-2757","ELEMENT_SET_NO":"999","TLE_LINE2":"2 48604  53.0560 193.5382 0001537  58.4406 301.6733 15.06387652 47026","PERIOD":"95.593","SITE":"AFETR","TLE_LINE1":"1 48604U 21041BD  22074.65321422  .00001117  00000-0  93887-4 0  9999","CENTER_NAME":"EARTH","OBJECT_ID":"2021-041BD","MEAN_MOTION_DOT":"0.00001117","APOAPSIS":"548.316","DECAY_DATE":null,"SEMIMAJOR_AXIS":"6925.386","RA_OF_ASC_NODE":"193.5382","MEAN_ANOMALY":"301.6733","ARG_OF_PERICENTER":"58.4406","ECCENTRICITY":"0.00015370","RCS_SIZE":"LARGE","MEAN_MOTION":"15.06387652","GP_ID":"198848918","REF_FRAME":"TEME","BSTAR":"0.00009388700000","LAUNCH_DATE":"2021-05-15","REV_AT_EPOCH":"4702","NORAD_CAT_ID":"48604","COUNTRY_CODE":"US","MEAN_MOTION_DDOT":"0.0000000000000","EPOCH":"2022-03-15T15:40:37.708608","PERIAPSIS":"546.187","MEAN_ELEMENT_THEORY":"SGP4","INCLINATION":"53.0560","OBJECT_TYPE":"PAYLOAD","TIME_SYSTEM":"UTC","CLASSIFICATION_TYPE":"U"},{"INCLINATION":"53.0560","TIME_SYSTEM":"UTC","OBJECT_TYPE":"PAYLOAD","CLASSIFICATION_TYPE":"U","REV_AT_EPOCH":"4446","NORAD_CAT_ID":"48638","REF_FRAME":"TEME","GP_ID":"198849422","MEAN_MOTION":"15.06393601","RCS_SIZE":"LARGE","ECCENTRICITY":"0.00012660","LAUNCH_DATE":"2021-05-26","BSTAR":"0.00009476700000","PERIAPSIS":"546.356","MEAN_ELEMENT_THEORY":"SGP4","EPOCH":"2022-03-15T14:30:55.915776","COUNTRY_CODE":"US","MEAN_MOTION_DDOT":"0.0000000000000","SEMIMAJOR_AXIS":"6925.368","DECAY_DATE":null,"ARG_OF_PERICENTER":"78.4818","RA_OF_ASC_NODE":"168.7527","MEAN_ANOMALY":"281.6313","TLE_LINE1":"1 48638U 21044A   22074.60481384  .00001130  00000-0  94767-4 0  9991","ELEMENT_SET_NO":"999","EPHEMERIS_TYPE":"0","FILE":"3360930","OBJECT_NAME":"STARLINK-2758","SITE":"AFETR","PERIOD":"95.593","TLE_LINE2":"2 48638  53.0560 168.7527 0001266  78.4818 281.6313 15.06393601 44463","MEAN_MOTION_DOT":"0.00001130","APOAPSIS":"548.110","CENTER_NAME":"EARTH","OBJECT_ID":"2021-044A"},{"CLASSIFICATION_TYPE":"U","OBJECT_TYPE":"PAYLOAD","TIME_SYSTEM":"UTC","INCLINATION":"53.0568","MEAN_MOTION_DDOT":"0.0000000000000","COUNTRY_CODE":"US","EPOCH":"2022-03-15T14:09:41.173632","MEAN_ELEMENT_THEORY":"SGP4","PERIAPSIS":"545.908","BSTAR":"0.00020795000000","LAUNCH_DATE":"2021-05-26","ECCENTRICITY":"0.00018100","RCS_SIZE":"LARGE","MEAN_MOTION":"15.06417025","GP_ID":"198848173","REF_FRAME":"TEME","NORAD_CAT_ID":"48639","REV_AT_EPOCH":"4446","MEAN_ANOMALY":"296.5993","RA_OF_ASC_NODE":"168.8140","ARG_OF_PERICENTER":"63.5182","DECAY_DATE":null,"SEMIMAJOR_AXIS":"6925.296","OBJECT_ID":"2021-044B","CENTER_NAME":"EARTH","APOAPSIS":"548.415","MEAN_MOTION_DOT":"0.00002819","TLE_LINE2":"2 48639  53.0568 168.8140 0001810  63.5182 296.5993 15.06417025 44464","PERIOD":"95.591","SITE":"AFETR","OBJECT_NAME":"STARLINK-2739","FILE":"3360930","EPHEMERIS_TYPE":"0","ELEMENT_SET_NO":"999","TLE_LINE1":"1 48639U 21044B   22074.59005988  .00002819  00000-0  20795-3 0  9996"},{"CLASSIFICATION_TYPE":"U","INCLINATION":"53.0538","OBJECT_TYPE":"PAYLOAD","TIME_SYSTEM":"UTC","EPOCH":"2022-03-15T16:33:00.918144","MEAN_ELEMENT_THEORY":"SGP4","PERIAPSIS":"546.208","COUNTRY_CODE":"US","MEAN_MOTION_DDOT":"0.0000000000000","REV_AT_EPOCH":"4447","NORAD_CAT_ID":"48640","RCS_SIZE":"LARGE","ECCENTRICITY":"0.00014550","MEAN_MOTION":"15.06399437","GP_ID":"198848423","REF_FRAME":"TEME","BSTAR":"0.00029628000000","LAUNCH_DATE":"2021-05-26","ARG_OF_PERICENTER":"63.2256","RA_OF_ASC_NODE":"168.3722","MEAN_ANOMALY":"296.8882","SEMIMAJOR_AXIS":"6925.350","DECAY_DATE":null,"MEAN_MOTION_DOT":"0.00004134","APOAPSIS":"548.223","CENTER_NAME":"EARTH","OBJECT_ID":"2021-044C","TLE_LINE1":"1 48640U 21044C   22074.68959396  .00004134  00000-0  29628-3 0  9995","EPHEMERIS_TYPE":"0","FILE":"3360930","OBJECT_NAME":"STARLINK-2736","ELEMENT_SET_NO":"999","PERIOD":"95.592","TLE_LINE2":"2 48640  53.0538 168.3722 0001455  63.2256 296.8882 15.06399437 44475","SITE":"AFETR"},{"INCLINATION":"53.0548","OBJECT_TYPE":"PAYLOAD","TIME_SYSTEM":"UTC","CLASSIFICATION_TYPE":"U","REV_AT_EPOCH":"4442","NORAD_CAT_ID":"48641","RCS_SIZE":"LARGE","ECCENTRICITY":"0.00023000","GP_ID":"198849173","MEAN_MOTION":"15.06381925","REF_FRAME":"TEME","BSTAR":"-0.00086552000000","LAUNCH_DATE":"2021-05-26","EPOCH":"2022-03-15T19:04:58.323936","PERIAPSIS":"545.676","MEAN_ELEMENT_THEORY":"SGP4","COUNTRY_CODE":"US","MEAN_MOTION_DDOT":"0.0000000000000","SEMIMAJOR_AXIS":"6925.404","DECAY_DATE":null,"ARG_OF_PERICENTER":"50.1490","RA_OF_ASC_NODE":"172.9019","MEAN_ANOMALY":"309.9701","TLE_LINE1":"1 48641U 21044D   22074.79511949 -.00013144  00000-0 -86552-3 0  9998","EPHEMERIS_TYPE":"0","FILE":"3360930","OBJECT_NAME":"STARLINK-2754","ELEMENT_SET_NO":"999","TLE_LINE2":"2 48641  53.0548 172.9019 0002300  50.1490 309.9701 15.06381925 44426","PERIOD":"95.593","SITE":"AFETR","MEAN_MOTION_DOT":"-0.00013144","APOAPSIS":"548.862","CENTER_NAME":"EARTH","OBJECT_ID":"2021-044D"},{"CLASSIFICATION_TYPE":"U","TIME_SYSTEM":"UTC","OBJECT_TYPE":"PAYLOAD","INCLINATION":"53.0562","MEAN_MOTION_DDOT":"0.0000000000000","COUNTRY_CODE":"US","MEAN_ELEMENT_THEORY":"SGP4","PERIAPSIS":"546.273","EPOCH":"2022-03-15T17:49:18.718464","LAUNCH_DATE":"2021-05-26","BSTAR":"-0.00006769400000","MEAN_MOTION":"15.06392576","GP_ID":"198849922","REF_FRAME":"TEME","ECCENTRICITY":"0.00013910","RCS_SIZE":"LARGE","NORAD_CAT_ID":"48642","REV_AT_EPOCH":"4441","MEAN_ANOMALY":"287.7293","RA_OF_ASC_NODE":"173.1343","ARG_OF_PERICENTER":"72.3848","DECAY_DATE":null,"SEMIMAJOR_AXIS":"6925.371","OBJECT_ID":"2021-044E","CENTER_NAME":"EARTH","APOAPSIS":"548.200","MEAN_MOTION_DOT":"-0.00001289","SITE":"AFETR","PERIOD":"95.593","TLE_LINE2":"2 48642  53.0562 173.1343 0001391  72.3848 287.7293 15.06392576 44410","ELEMENT_SET_NO":"999","FILE":"3360930","EPHEMERIS_TYPE":"0","OBJECT_NAME":"STARLINK-2646","TLE_LINE1":"1 48642U 21044E   22074.74257776 -.00001289  00000-0 -67694-4 0  9993"},{"REV_AT_EPOCH":"4442","NORAD_CAT_ID":"48643","GP_ID":"198848673","MEAN_MOTION":"15.06392464","REF_FRAME":"TEME","RCS_SIZE":"LARGE","ECCENTRICITY":"0.00017400","LAUNCH_DATE":"2021-05-26","BSTAR":"-0.00010382000000","MEAN_ELEMENT_THEORY":"SGP4","PERIAPSIS":"546.032","EPOCH":"2022-03-15T18:59:40.684704","COUNTRY_CODE":"US","MEAN_MOTION_DDOT":"0.0000000000000","INCLINATION":"53.0554","TIME_SYSTEM":"UTC","OBJECT_TYPE":"PAYLOAD","CLASSIFICATION_TYPE":"U","TLE_LINE1":"1 48643U 21044F   22074.79144311 -.00001827  00000-0 -10382-3 0  9998","ELEMENT_SET_NO":"999","OBJECT_NAME":"STARLINK-2704","FILE":"3360930","EPHEMERIS_TYPE":"0","SITE":"AFETR","PERIOD":"95.593","TLE_LINE2":"2 48643  53.0554 172.9069 0001740  55.2504 304.8649 15.06392464 44424","MEAN_MOTION_DOT":"-0.00001827","APOAPSIS":"548.442","CENTER_NAME":"EARTH","OBJECT_ID":"2021-044F","SEMIMAJOR_AXIS":"6925.372","DECAY_DATE":null,"ARG_OF_PERICENTER":"55.2504","RA_OF_ASC_NODE":"172.9069","MEAN_ANOMALY":"304.8649"}];
